CTC1_L_00509001-01
1 22240U 25742KE  26037.47807870  .00000000  00000+0  00000-0 0  9998
2 22240  97.5000   0.0000 0000000   0.0000   0.0000 15.10393143    14
CTC1_L_00509001-02
1 22241U 24558MS  26037.47807870  .00000000  00000+0  00000-0 0  9993
2 22241  97.5000   0.0000 0000000   0.0000  13.3333 15.10393143    11
CTC1_L_00509001-03
1 22242U 26407KU  26037.47807870  .00000000  00000+0  00000-0 0  9999
2 22242  97.5000   0.0000 0000000   0.0000  26.6667 15.10393143    19
CTC1_L_00509001-04
1 22243U 24934LC  26037.47807870  .00000000  00000+0  00000-0 0  9993
2 22243  97.5000   0.0000 0000000   0.0000  40.0000 15.10393143    11
CTC1_L_00509001-05
1 22244U 25145LC  26037.47807870  .00000000  00000+0  00000-0 0  9999
2 22244  97.5000   0.0000 0000000   0.0000  53.3333 15.10393143    18
CTC1_L_00509001-06
1 22245U 26160PU  26037.47807870  .00000000  00000+0  00000-0 0  9998
2 22245  97.5000   0.0000 0000000   0.0000  66.6667 15.10393143    16
CTC1_L_00509001-07
1 22246U 22289GD  26037.47807870  .00000000  00000+0  00000-0 0  9997
2 22246  97.5000   0.0000 0000000   0.0000  80.0000 15.10393143    18
CTC1_L_00509001-08
1 22247U 24962DJ  26037.47807870  .00000000  00000+0  00000-0 0  9998
2 22247  97.5000   0.0000 0000000   0.0000  93.3333 15.10393143    15
CTC1_L_00509001-09
1 22248U 25664UO  26037.47807870  .00000000  00000+0  00000-0 0  9999
2 22248  97.5000   0.0000 0000000   0.0000 106.6667 15.10393143    14
CTC1_L_00509001-10
1 22249U 22620GU  26037.47807870  .00000000  00000+0  00000-0 0  9999
2 22249  97.5000   0.0000 0000000   0.0000 120.0000 15.10393143    16
CTC1_L_00509001-11
1 22250U 24781HE  26037.47807870  .00000000  00000+0  00000-0 0  9991
2 22250  97.5000   0.0000 0000000   0.0000 133.3333 15.10393143    14
CTC1_L_00509001-12
1 22251U 24269HT  26037.47807870  .00000000  00000+0  00000-0 0  9993
2 22251  97.5000   0.0000 0000000   0.0000 146.6667 15.10393143    12
CTC1_L_00509001-13
1 22252U 23073OD  26037.47807870  .00000000  00000+0  00000-0 0  9996
2 22252  97.5000   0.0000 0000000   0.0000 160.0000 15.10393143    14
CTC1_L_00509001-14
1 22253U 24656AN  26037.47807870  .00000000  00000+0  00000-0 0  9995
2 22253  97.5000   0.0000 0000000   0.0000 173.3333 15.10393143    11
CTC1_L_00509001-15
1 22254U 25651XR  26037.47807870  .00000000  00000+0  00000-0 0  9992
2 22254  97.5000   0.0000 0000000   0.0000 186.6667 15.10393143    19
CTC1_L_00509001-16
1 22255U 23807SW  26037.47807870  .00000000  00000+0  00000-0 0  9994
2 22255  97.5000   0.0000 0000000   0.0000 200.0000 15.10393143    12
CTC1_L_00509001-17
1 22256U 26479EG  26037.47807870  .00000000  00000+0  00000-0 0  9993
2 22256  97.5000   0.0000 0000000   0.0000 213.3333 15.10393143    19
CTC1_L_00509001-18
1 22257U 23966DF  26037.47807870  .00000000  00000+0  00000-0 0  9992
2 22257  97.5000   0.0000 0000000   0.0000 226.6667 15.10393143    17
CTC1_L_00509001-19
1 22258U 26602WB  26037.47807870  .00000000  00000+0  00000-0 0  9993
2 22258  97.5000   0.0000 0000000   0.0000 240.0000 15.10393143    19
CTC1_L_00509001-20
1 22259U 25483LW  26037.47807870  .00000000  00000+0  00000-0 0  9990
2 22259  97.5000   0.0000 0000000   0.0000 253.3333 15.10393143    16
CTC1_L_00509001-21
1 22260U 22873DM  26037.47807870  .00000000  00000+0  00000-0 0  9992
2 22260  97.5000   0.0000 0000000   0.0000 266.6667 15.10393143    15
CTC1_L_00509001-22
1 22261U 25299TX  26037.47807870  .00000000  00000+0  00000-0 0  9998
2 22261  97.5000   0.0000 0000000   0.0000 280.0000 15.10393143    17
CTC1_L_00509001-23
1 22262U 22749BE  26037.47807870  .00000000  00000+0  00000-0 0  9996
2 22262  97.5000   0.0000 0000000   0.0000 293.3333 15.10393143    14
CTC1_L_00509001-24
1 22263U 25801YL  26037.47807870  .00000000  00000+0  00000-0 0  9999
2 22263  97.5000   0.0000 0000000   0.0000 306.6667 15.10393143    13
CTC1_L_00509001-25
1 22264U 25098VZ  26037.47807870  .00000000  00000+0  00000-0 0  9998
2 22264  97.5000   0.0000 0000000   0.0000 320.0000 15.10393143    15
CTC1_L_00509001-26
1 22265U 25927VO  26037.47807870  .00000000  00000+0  00000-0 0  9990
2 22265  97.5000   0.0000 0000000   0.0000 333.3333 15.10393143    12
CTC1_L_00509001-27
1 22266U 25762RN  26037.47807870  .00000000  00000+0  00000-0 0  9998
2 22266  97.5000   0.0000 0000000   0.0000 346.6667 15.10393143    10
CTC1_L_00509002-01
1 22267U 25037QK  26037.47807870  .00000000  00000+0  00000-0 0  9994
2 22267  97.5000  12.0000 0000000   0.0000   1.7778 15.10393143    16
CTC1_L_00509002-02
1 22268U 25741MQ  26037.47807870  .00000000  00000+0  00000-0 0  9997
2 22268  97.5000  12.0000 0000000   0.0000  15.1111 15.10393143    17
CTC1_L_00509002-03
1 22269U 25997PA  26037.47807870  .00000000  00000+0  00000-0 0  9991
2 22269  97.5000  12.0000 0000000   0.0000  28.4444 15.10393143    14
CTC1_L_00509002-04
1 22270U 26818VX  26037.47807870  .00000000  00000+0  00000-0 0  9996
2 22270  97.5000  12.0000 0000000   0.0000  41.7778 15.10393143    14
CTC1_L_00509002-05
1 22271U 22745FI  26037.47807870  .00000000  00000+0  00000-0 0  9992
2 22271  97.5000  12.0000 0000000   0.0000  55.1111 15.10393143    15
CTC1_L_00509002-06
1 22272U 26845QZ  26037.47807870  .00000000  00000+0  00000-0 0  9998
2 22272  97.5000  12.0000 0000000   0.0000  68.4444 15.10393143    12
CTC1_L_00509002-07
1 22273U 25359CB  26037.47807870  .00000000  00000+0  00000-0 0  9998
2 22273  97.5000  12.0000 0000000   0.0000  81.7778 15.10393143    11
CTC1_L_00509002-08
1 22274U 23536YB  26037.47807870  .00000000  00000+0  00000-0 0  9994
2 22274  97.5000  12.0000 0000000   0.0000  95.1111 15.10393143    12
CTC1_L_00509002-09
1 22275U 25317XE  26037.47807870  .00000000  00000+0  00000-0 0  9994
2 22275  97.5000  12.0000 0000000   0.0000 108.4444 15.10393143    10
CTC1_L_00509002-10
1 22276U 24749XC  26037.47807870  .00000000  00000+0  00000-0 0  9993
2 22276  97.5000  12.0000 0000000   0.0000 121.7778 15.10393143    19
CTC1_L_00509002-11
1 22277U 24301ND  26037.47807870  .00000000  00000+0  00000-0 0  9998
2 22277  97.5000  12.0000 0000000   0.0000 135.1111 15.10393143    10
CTC1_L_00509002-12
1 22278U 24564HP  26037.47807870  .00000000  00000+0  00000-0 0  9990
2 22278  97.5000  12.0000 0000000   0.0000 148.4444 15.10393143    17
CTC1_L_00509002-13
1 22279U 26303BA  26037.47807870  .00000000  00000+0  00000-0 0  9994
2 22279  97.5000  12.0000 0000000   0.0000 161.7778 15.10393143    16
CTC1_L_00509002-14
1 22280U 23400NL  26037.47807870  .00000000  00000+0  00000-0 0  9991
2 22280  97.5000  12.0000 0000000   0.0000 175.1111 15.10393143    18
CTC1_L_00509002-15
1 22281U 25820VS  26037.47807870  .00000000  00000+0  00000-0 0  9990
2 22281  97.5000  12.0000 0000000   0.0000 188.4444 15.10393143    15
CTC1_L_00509002-16
1 22282U 22228VT  26037.47807870  .00000000  00000+0  00000-0 0  9990
2 22282  97.5000  12.0000 0000000   0.0000 201.7778 15.10393143    15
CTC1_L_00509002-17
1 22283U 24575DP  26037.47807870  .00000000  00000+0  00000-0 0  9998
2 22283  97.5000  12.0000 0000000   0.0000 215.1111 15.10393143    16
CTC1_L_00509002-18
1 22284U 24400HZ  26037.47807870  .00000000  00000+0  00000-0 0  9996
2 22284  97.5000  12.0000 0000000   0.0000 228.4444 15.10393143    13
CTC1_L_00509002-19
1 22285U 24141RN  26037.47807870  .00000000  00000+0  00000-0 0  9999
2 22285  97.5000  12.0000 0000000   0.0000 241.7778 15.10393143    12
CTC1_L_00509002-20
1 22286U 25417RH  26037.47807870  .00000000  00000+0  00000-0 0  9997
2 22286  97.5000  12.0000 0000000   0.0000 255.1111 15.10393143    13
CTC1_L_00509002-21
1 22287U 24306IN  26037.47807870  .00000000  00000+0  00000-0 0  9994
2 22287  97.5000  12.0000 0000000   0.0000 268.4444 15.10393143    10
CTC1_L_00509002-22
1 22288U 24235L   26037.47807870  .00000000  00000+0  00000-0 0  9996
2 22288  97.5000  12.0000 0000000   0.0000 281.7778 15.10393143    19
CTC1_L_00509002-23
1 22289U 22609QN  26037.47807870  .00000000  00000+0  00000-0 0  9990
2 22289  97.5000  12.0000 0000000   0.0000 295.1111 15.10393143    10
CTC1_L_00509002-24
1 22290U 23447QA  26037.47807870  .00000000  00000+0  00000-0 0  9993
2 22290  97.5000  12.0000 0000000   0.0000 308.4444 15.10393143    19
CTC1_L_00509002-25
1 22291U 26852ZF  26037.47807870  .00000000  00000+0  00000-0 0  9997
2 22291  97.5000  12.0000 0000000   0.0000 321.7778 15.10393143    18
CTC1_L_00509002-26
1 22292U 24269AF  26037.47807870  .00000000  00000+0  00000-0 0  9998
2 22292  97.5000  12.0000 0000000   0.0000 335.1111 15.10393143    19
CTC1_L_00509002-27
1 22293U 26269EQ  26037.47807870  .00000000  00000+0  00000-0 0  9991
2 22293  97.5000  12.0000 0000000   0.0000 348.4444 15.10393143    16
CTC1_L_00509003-01
1 22294U 23505R   26037.47807870  .00000000  00000+0  00000-0 0  9992
2 22294  97.5000  24.0000 0000000   0.0000   3.5556 15.10393143    13
CTC1_L_00509003-02
1 22295U 22950XM  26037.47807870  .00000000  00000+0  00000-0 0  9996
2 22295  97.5000  24.0000 0000000   0.0000  16.8889 15.10393143    10
CTC1_L_00509003-03
1 22296U 23627IQ  26037.47807870  .00000000  00000+0  00000-0 0  9999
2 22296  97.5000  24.0000 0000000   0.0000  30.2222 15.10393143    12
CTC1_L_00509003-04
1 22297U 22846HG  26037.47807870  .00000000  00000+0  00000-0 0  9992
2 22297  97.5000  24.0000 0000000   0.0000  43.5556 15.10393143    10
CTC1_L_00509003-05
1 22298U 23529UP  26037.47807870  .00000000  00000+0  00000-0 0  9992
2 22298  97.5000  24.0000 0000000   0.0000  56.8889 15.10393143    17
CTC1_L_00509003-06
1 22299U 22357FZ  26037.47807870  .00000000  00000+0  00000-0 0  9991
2 22299  97.5000  24.0000 0000000   0.0000  70.2222 15.10393143    19
CTC1_L_00509003-07
1 22300U 24255GW  26037.47807870  .00000000  00000+0  00000-0 0  9993
2 22300  97.5000  24.0000 0000000   0.0000  83.5556 15.10393143    19
CTC1_L_00509003-08
1 22301U 23808ZA  26037.47807870  .00000000  00000+0  00000-0 0  9997
2 22301  97.5000  24.0000 0000000   0.0000  96.8889 15.10393143    16
